SL-14 R/B               
1 20511U 90018B   26187.85871530  .00000377  00000+0  44176-4 0  9990
2 20511  82.5221 111.7222 0017523  62.4199 297.8793 14.82230238940232
HST                     
1 20580U 90037B   26187.43980126  .00006941  00000+0  21758-3 0  9996
2 20580  28.4736 308.9720 0001833  18.1844 341.8817 15.30993245791524
SL-16 R/B               
1 20625U 90046B   26187.74171058 -.00000150  00000+0 -52891-4 0  9997
2 20625  70.9986  47.8800 0012498 129.3013 230.9220 14.15023048865236
COSMOS 2084             
1 20663U 90055A   26187.64718480  .00001908  00000+0  14327-3 0  9995
2 20663  62.7907 289.6673 0007054 309.5076  50.5401 15.06202220954235
SL-6 R/B(2)             
1 20666U 90055D   26187.52970764  .00001698  00000+0  13437-3 0  9997
2 20666  62.7808 209.5523 0043781   7.8134 352.3638 15.04065260956060
SL-8 R/B                
1 20775U 90078B   26187.36509818  .00025736  00000+0  72833-3 0  9997
2 20775  82.9028 144.3039 0345204 333.5884  24.8085 14.93321181826981
SL-8 R/B                
1 21088U 91006B   26187.74625213  .00000078  00000+0  62463-4 0  9998
2 21088  82.9418  81.4832 0023771  62.9975 351.2040 13.77508178780464
OKEAN-3                 
1 21397U 91039A   26187.61454485  .00001892  00000+0  12986-3 0  9993
2 21397  82.5139 221.5414 0011995 286.6490  73.3420 15.05408585882920
COSMOS 2151             
1 21422U 91042A   26187.86597713  .00001699  00000+0  13258-3 0  9993
2 21422  82.4976 328.6884 0012752  23.2267 336.9531 15.00496519881060
SL-14 R/B               
1 21423U 91042B   26187.86941899  .00000323  00000+0  37836-4 0  9994
2 21423  82.4936 108.4393 0016238 204.7316 155.3122 14.81914812870729
ERS-1                   
1 21574U 91050A   26187.69638806  .00000219  00000+0  84569-4 0  9991
2 21574  98.7794 208.8709 0031371 207.1883 152.7662 14.39529129832853
ARIANE 40 R/B           
1 21610U 91050F   26187.67292071  .00000261  00000+0  90416-4 0  9995
2 21610  98.1865 235.3298 0004419  79.7644 280.4045 14.42968691836152
INTERCOSMOS 25          
1 21819U 91086A   26187.59113453  .00001273  00000+0  25155-3 0  9993
2 21819  82.6022 238.0677 1484160 220.4969 127.5931 12.12228214511091
SL-8 R/B                
1 21876U 92008B   26187.70948409  .00000139  00000+0  12734-3 0  9990
2 21876  82.9263 179.2721 0035162 159.8408  14.6545 13.75981918725783
SL-8 R/B                
1 21938U 92020B   26187.69217395  .00000026  00000+0  11920-4 0  9996
2 21938  82.9293  65.3687 0028376 328.1662  85.6467 13.75550318717499
USA 81                  
1 21949U 92023A   26187.69485306  .00000141  00000+0  44873-4 0  9991
2 21949  85.0060  62.7472 0002347  69.1066 291.0378 14.32403399111829
COSMOS 2219             
1 22219U 92076A   26187.85557358  .00000003  00000+0  26057-4 0  9996
2 22219  71.0613 128.9560 0017712  10.8784 349.2717 14.14110082735227
SL-16 R/B               
1 22220U 92076B   26187.73668080  .00000029  00000+0  38366-4 0  9994
2 22220  71.0010 297.5990 0015007 272.9951 197.4237 14.16874049738698
COSMOS 2221             
1 22236U 92080A   26187.39523733  .00001699  00000+0  14665-3 0  9992
2 22236  82.5036 165.3610 0015058 147.5250 212.6902 14.96587226798541
SL-16 R/B               
1 22285U 92093B   26187.25253020  .00000142  00000+0  96867-4 0  9991
2 22285  71.0222 115.3681 0002813 153.5670 206.5597 14.15466559729931
COSMOS 2228             
1 22286U 92094A   26187.86472314  .00001667  00000+0  13993-3 0  9990
2 22286  82.5188 123.1950 0015976 260.0983  99.8436 14.97657170793893
SL-16 R/B               
1 22566U 93016B   26187.72932799 -.00000209  00000+0 -82949-4 0  9990
2 22566  71.0086 325.1612 0009106 153.2156 206.9438 14.15312098719018
COSMOS 2242             
1 22626U 93024A   26187.36529389  .00001951  00000+0  16723-3 0  9992
2 22626  82.5191 153.1940 0014321 265.6577  94.3009 14.96966371798144
SL-16 R/B               
1 22803U 93059B   26187.26427086  .00000058  00000+0  52231-4 0  9999
2 22803  70.9905 121.0740 0016174  22.5093 337.6737 14.17251192696338
ARIANE 40 R/B           
1 22830U 93061H   26187.68740685  .00000179  00000+0  81299-4 0  9991
2 22830  98.4810 254.1387 0009518 294.2133  65.8056 14.32916198711142
COSMOS 2278             
1 23087U 94023A   26187.69566012 -.00000229  00000+0 -94801-4 0  9997
2 23087  71.0540 286.1091 0010038 218.5200 141.5207 14.14394987661638
SL-16 R/B               
1 23088U 94023B   26187.68871691 -.00000212  00000+0 -84573-4 0  9996
2 23088  70.9977 180.9760 0001600 157.4247 202.6946 14.15024765662929
SL-16 R/B               
1 23343U 94074B   26187.70430461  .00000401  00000+0  60157-4 0  9995
2 23343  97.6985 213.6114 0006431 180.4913 302.0618 14.79519321704844
SL-16 R/B               
1 23405U 94077B   26187.19991666 -.00000207  00000+0 -81209-4 0  9996
2 23405  70.9832 103.1643 0003978 310.5568  49.5208 14.15577322633005
ARIANE 40+ R/B          
1 23561U 95021B   26187.73075454  .00000225  00000+0  85484-4 0  9994
2 23561  98.4403 257.5228 0007624 138.2282 334.9654 14.39844335636376
SL-16 R/B               
1 23705U 95058B   26187.70727084 -.00000235  00000+0 -95571-4 0  9995
2 23705  71.0222 290.3754 0014635 293.9269  66.0321 14.15509056584698
