OBJECT_NAME,OBJECT_ID,EPOCH,MEAN_MOTION,ECCENTRICITY,INCLINATION,RA_OF_ASC_NODE,ARG_OF_PERICENTER,MEAN_ANOMALY,EPHEMERIS_TYPE,CLASSIFICATION_TYPE,NORAD_CAT_ID,ELEMENT_SET_NO,REV_AT_EPOCH,BSTAR,MEAN_MOTION_DOT,MEAN_MOTION_DDOT
SL-14 R/B,1990-018B,2026-07-06T20:36:33.001920,14.82230238,.0017523,82.5221,111.7222,62.4199,297.8793,0,U,20511,999,94023,.44176E-4,.377E-5,0
HST,1990-037B,2026-07-06T10:33:18.828864,15.30993245,.00018336,28.4736,308.9720,18.1844,341.8817,0,U,20580,999,79152,.21757721E-3,.6941E-4,0
SL-16 R/B,1990-046B,2026-07-06T17:48:03.794112,14.15023048,.0012498,70.9986,47.8800,129.3013,230.9220,0,U,20625,999,86523,-.52891E-4,-.15E-5,0
COSMOS 2084,1990-055A,2026-07-06T15:31:56.766720,15.06202220,.0007054,62.7907,289.6673,309.5076,50.5401,0,U,20663,999,95423,.14327E-3,.1908E-4,0
SL-6 R/B(2),1990-055D,2026-07-06T12:42:46.740096,15.04065260,.0043781,62.7808,209.5523,7.8134,352.3638,0,U,20666,999,95606,.13437E-3,.1698E-4,0
SL-8 R/B,1990-078B,2026-07-06T08:45:44.482752,14.93321181,.03452048,82.9028,144.3039,333.5884,24.8085,0,U,20775,999,82698,.72832902E-3,.25736E-3,0
SL-8 R/B,1991-006B,2026-07-06T17:54:36.184032,13.77508178,.0023771,82.9418,81.4832,62.9975,351.2040,0,U,21088,999,78046,.62463E-4,.78E-6,0
OKEAN-3,1991-039A,2026-07-06T14:44:56.675040,15.05408585,.0011995,82.5139,221.5414,286.6490,73.3420,0,U,21397,999,88292,.12986E-3,.1892E-4,0
COSMOS 2151,1991-042A,2026-07-06T20:47:00.424032,15.00496519,.0012752,82.4976,328.6884,23.2267,336.9531,0,U,21422,999,88106,.13258E-3,.1699E-4,0
SL-14 R/B,1991-042B,2026-07-06T20:51:57.800736,14.81914812,.0016238,82.4936,108.4393,204.7316,155.3122,0,U,21423,999,87072,.37836E-4,.323E-5,0
ERS-1,1991-050A,2026-07-06T16:42:47.928384,14.39529129,.0031371,98.7794,208.8709,207.1883,152.7662,0,U,21574,999,83285,.84569E-4,.219E-5,0
ARIANE 40 R/B,1991-050F,2026-07-06T16:09:00.349344,14.42968691,.0004419,98.1865,235.3298,79.7644,280.4045,0,U,21610,999,83615,.90416E-4,.261E-5,0
INTERCOSMOS 25,1991-086A,2026-07-06T14:11:14.023392,12.12228214,.148416,82.6022,238.0677,220.4969,127.5931,0,U,21819,999,51109,.25155E-3,.1273E-4,0
SL-8 R/B,1992-008B,2026-07-06T17:01:39.425376,13.75981918,.0035162,82.9263,179.2721,159.8408,14.6545,0,U,21876,999,72578,.12734E-3,.139E-5,0
SL-8 R/B,1992-020B,2026-07-06T16:36:43.829280,13.75550318,.0028376,82.9293,65.3687,328.1662,85.6467,0,U,21938,999,71749,.1192E-4,.26E-6,0
USA 81,1992-023A,2026-07-06T16:40:35.304384,14.32403399,.0002347,85.0060,62.7472,69.1066,291.0378,0,U,21949,999,11182,.44873E-4,.141E-5,0
COSMOS 2219,1992-076A,2026-07-06T20:32:01.557312,14.14110082,.0017712,71.0613,128.9560,10.8784,349.2717,0,U,22219,999,73522,.26057E-4,.3E-7,0
SL-16 R/B,1992-076B,2026-07-06T17:40:49.221120,14.16874049,.0015007,71.0010,297.5990,272.9951,197.4237,0,U,22220,999,73869,.38366E-4,.29E-6,0
COSMOS 2221,1992-080A,2026-07-06T09:29:08.505312,14.96587226,.00150589,82.5036,165.3610,147.5250,212.6902,0,U,22236,999,79854,.1466502E-3,.1699E-4,0
SL-16 R/B,1992-093B,2026-07-06T06:03:38.609280,14.15466559,.00028139,71.0222,115.3681,153.5670,206.5597,0,U,22285,999,72993,.96867273E-4,.142E-5,0
COSMOS 2228,1992-094A,2026-07-06T20:45:12.079296,14.97657170,.0015976,82.5188,123.1950,260.0983,99.8436,0,U,22286,999,79389,.13993E-3,.1667E-4,0
SL-16 R/B,1993-016B,2026-07-06T17:30:13.938336,14.15312098,.0009106,71.0086,325.1612,153.2156,206.9438,0,U,22566,999,71901,-.82949E-4,-.209E-5,0
COSMOS 2242,1993-024A,2026-07-06T08:46:01.392096,14.96966371,.0014321,82.5191,153.1940,265.6577,94.3009,0,U,22626,999,79814,.16722737E-3,.1951E-4,0
SL-16 R/B,1993-059B,2026-07-06T06:20:33.002304,14.17251192,.00161741,70.9905,121.0740,22.5093,337.6737,0,U,22803,999,69633,.5223086E-4,.58E-6,0
ARIANE 40 R/B,1993-061H,2026-07-06T16:29:51.951840,14.32916198,.0009518,98.4810,254.1387,294.2133,65.8056,0,U,22830,999,71114,.81299E-4,.179E-5,0
COSMOS 2278,1994-023A,2026-07-06T16:41:45.034368,14.14394987,.0010038,71.0540,286.1091,218.5200,141.5207,0,U,23087,999,66163,-.94801E-4,-.229E-5,0
SL-16 R/B,1994-023B,2026-07-06T16:31:45.141024,14.15024765,.00016,70.9977,180.9760,157.4247,202.6946,0,U,23088,999,66292,-.84573E-4,-.212E-5,0
SL-16 R/B,1994-074B,2026-07-06T16:54:11.918304,14.79519321,.0006431,97.6985,213.6114,180.4913,302.0618,0,U,23343,999,70484,.60157E-4,.401E-5,0
SL-16 R/B,1994-077B,2026-07-06T04:47:52.799424,14.15577322,.00039786,70.9832,103.1643,310.5568,49.5208,0,U,23405,999,63300,-.81209472E-4,-.207E-5,0
ARIANE 40+ R/B,1995-021B,2026-07-06T17:32:17.192256,14.39844335,.0007624,98.4403,257.5228,138.2282,334.9654,0,U,23561,999,63637,.85484E-4,.225E-5,0
SL-16 R/B,1995-058B,2026-07-06T16:58:28.200576,14.15509056,.0014635,71.0222,290.3754,293.9269,66.0321,0,U,23705,999,58469,-.95571E-4,-.235E-5,0
